{
  "type": "FeatureCollection",
  "features": [
    {
      "type": "Feature",
      "properties": {
        "norad_id": 29740,
        "name": "FENGYUN 1C DEB",
        "group": "fengyun-1c-debris",
        "lat": 44.337117242168105,
        "lon": 27.936954853832617,
        "alt_km": 1214.796925621703,
        "timestamp": "2025-12-13T16:48:32.981343+00:00",
        "meta_object_name": "FENGYUN 1C DEB",
        "meta_object_id": "1999-025AE",
        "meta_epoch": "2025-12-12T00:14:51.173664",
        "meta_mean_motion": 12.08330303,
        "meta_eccentricity": 0.09751517,
        "meta_inclination": 99.0446,
        "meta_ra_of_asc_node": 197.7762,
        "meta_arg_of_pericenter": 200.1708,
        "meta_mean_anomaly": 155.8154,
        "meta_ephemeris_type": 0,
        "meta_classification_type": "U",
        "meta_norad_cat_id": 29740,
        "meta_element_set_no": 999,
        "meta_rev_at_epoch": 82926,
        "meta_bstar": 0.0020889693,
        "meta_mean_motion_dot": 7.79e-06,
        "meta_mean_motion_ddot": 0,
        "tle_line1": "1 29740U 99025AE  25346.01031451  .00000779  00000+0  20890-2 0  9995",
        "tle_line2": "2 29740  99.0446 197.7762 0975151 200.1708 155.8154 12.08330303829260"
      },
      "geometry": {
        "type": "Point",
        "coordinates": [
          27.936954853832617,
          44.337117242168105
        ]
      }
    },
    {
      "type": "Feature",
      "properties": {
        "norad_id": 29741,
        "name": "FENGYUN 1C DEB",
        "group": "fengyun-1c-debris",
        "lat": -20.892021702515073,
        "lon": -134.70234522432716,
        "alt_km": 1500.0557584365615,
        "timestamp": "2025-12-13T16:48:32.981354+00:00",
        "meta_object_name": "FENGYUN 1C DEB",
        "meta_object_id": "1999-025AF",
        "meta_epoch": "2025-12-12T15:11:09.894624",
        "meta_mean_motion": 12.0093314,
        "meta_eccentricity": 0.10245819,
        "meta_inclination": 99.1747,
        "meta_ra_of_asc_node": 220.9969,
        "meta_arg_of_pericenter": 64.1181,
        "meta_mean_anomaly": 352.6823,
        "meta_ephemeris_type": 0,
        "meta_classification_type": "U",
        "meta_norad_cat_id": 29741,
        "meta_element_set_no": 999,
        "meta_rev_at_epoch": 52182,
        "meta_bstar": 0.0066373004,
        "meta_mean_motion_dot": 2.581e-05,
        "meta_mean_motion_ddot": 0,
        "tle_line1": "1 29741U 99025AF  25346.63275341  .00002581  00000+0  66373-2 0  9991",
        "tle_line2": "2 29741  99.1747 220.9969 1024581  64.1181 352.6823 12.00933140521821"
      },
      "geometry": {
        "type": "Point",
        "coordinates": [
          -134.70234522432716,
          -20.892021702515073
        ]
      }
    },
    {
      "type": "Feature",
      "properties": {
        "norad_id": 29748,
        "name": "FENGYUN 1C DEB",
        "group": "fengyun-1c-debris",
        "lat": -48.432202046432316,
        "lon": 87.12267726367,
        "alt_km": 2211.8332325074143,
        "timestamp": "2025-12-13T16:48:32.981364+00:00",
        "meta_object_name": "FENGYUN 1C DEB",
        "meta_object_id": "1999-025AN",
        "meta_epoch": "2025-12-08T18:28:11.177184",
        "meta_mean_motion": 11.89764026,
        "meta_eccentricity": 0.08397796,
        "meta_inclination": 99.8026,
        "meta_ra_of_asc_node": 274.6986,
        "meta_arg_of_pericenter": 16.7533,
        "meta_mean_anomaly": 345.9549,
        "meta_ephemeris_type": 0,
        "meta_classification_type": "U",
        "meta_norad_cat_id": 29748,
        "meta_element_set_no": 999,
        "meta_rev_at_epoch": 78686,
        "meta_bstar": 0.18763308,
        "meta_mean_motion_dot": 0.00036035,
        "meta_mean_motion_ddot": 0,
        "tle_line1": "1 29748U 99025AN  25342.76957381  .00036035  00000+0  18763+0 0  9997",
        "tle_line2": "2 29748  99.8026 274.6986 0839779  16.7533 345.9549 11.89764026786864"
      },
      "geometry": {
        "type": "Point",
        "coordinates": [
          87.12267726367,
          -48.432202046432316
        ]
      }
    },
    {
      "type": "Feature",
      "properties": {
        "norad_id": 29750,
        "name": "FENGYUN 1C DEB",
        "group": "fengyun-1c-debris",
        "lat": 77.86661843165034,
        "lon": -117.41902650261694,
        "alt_km": 877.0971857619488,
        "timestamp": "2025-12-13T16:48:32.981374+00:00",
        "meta_object_name": "FENGYUN 1C DEB",
        "meta_object_id": "1999-025AQ",
        "meta_epoch": "2025-12-12T22:10:31.056384",
        "meta_mean_motion": 14.09643702,
        "meta_eccentricity": 0.00351041,
        "meta_inclination": 98.7549,
        "meta_ra_of_asc_node": 16.0374,
        "meta_arg_of_pericenter": 300.8993,
        "meta_mean_anomaly": 179.5007,
        "meta_ephemeris_type": 0,
        "meta_classification_type": "U",
        "meta_norad_cat_id": 29750,
        "meta_element_set_no": 999,
        "meta_rev_at_epoch": 97076,
        "meta_bstar": 0.00030635404,
        "meta_mean_motion_dot": 4.97e-06,
        "meta_mean_motion_ddot": 0,
        "tle_line1": "1 29750U 99025AQ  25346.92397056  .00000497  00000+0  30635-3 0  9998",
        "tle_line2": "2 29750  98.7549  16.0374 0035104 300.8993 179.5007 14.09643702970767"
      },
      "geometry": {
        "type": "Point",
        "coordinates": [
          -117.41902650261694,
          77.86661843165034
        ]
      }
    },
    {
      "type": "Feature",
      "properties": {
        "norad_id": 29751,
        "name": "FENGYUN 1C DEB",
        "group": "fengyun-1c-debris",
        "lat": -73.86499795425493,
        "lon": 46.84396626953872,
        "alt_km": 874.6640481252825,
        "timestamp": "2025-12-13T16:48:32.981385+00:00",
        "meta_object_name": "FENGYUN 1C DEB",
        "meta_object_id": "1999-025AR",
        "meta_epoch": "2025-12-12T00:49:50.759328",
        "meta_mean_motion": 14.23628371,
        "meta_eccentricity": 0.0089884,
        "meta_inclination": 98.5417,
        "meta_ra_of_asc_node": 13.9273,
        "meta_arg_of_pericenter": 141.2573,
        "meta_mean_anomaly": 249.6401,
        "meta_ephemeris_type": 0,
        "meta_classification_type": "U",
        "meta_norad_cat_id": 29751,
        "meta_element_set_no": 999,
        "meta_rev_at_epoch": 98063,
        "meta_bstar": 0.00023775,
        "meta_mean_motion_dot": 5.23e-06,
        "meta_mean_motion_ddot": 0,
        "tle_line1": "1 29751U 99025AR  25346.03461527  .00000523  00000+0  23775-3 0  9993",
        "tle_line2": "2 29751  98.5417  13.9273 0089884 141.2573 249.6401 14.23628371980634"
      },
      "geometry": {
        "type": "Point",
        "coordinates": [
          46.84396626953872,
          -73.86499795425493
        ]
      }
    },
    {
      "type": "Feature",
      "properties": {
        "norad_id": 29754,
        "name": "FENGYUN 1C DEB",
        "group": "fengyun-1c-debris",
        "lat": 41.1751285067743,
        "lon": 82.57898838799518,
        "alt_km": 849.8897878767393,
        "timestamp": "2025-12-13T16:48:32.981395+00:00",
        "meta_object_name": "FENGYUN 1C DEB",
        "meta_object_id": "1999-025AU",
        "meta_epoch": "2025-12-12T07:05:20.177952",
        "meta_mean_motion": 14.19148071,
        "meta_eccentricity": 0.00359135,
        "meta_inclination": 98.8838,
        "meta_ra_of_asc_node": 89.0338,
        "meta_arg_of_pericenter": 240.6266,
        "meta_mean_anomaly": 187.0358,
        "meta_ephemeris_type": 0,
        "meta_classification_type": "U",
        "meta_norad_cat_id": 29754,
        "meta_element_set_no": 999,
        "meta_rev_at_epoch": 97348,
        "meta_bstar": 0.001575614,
        "meta_mean_motion_dot": 3.274e-05,
        "meta_mean_motion_ddot": 0,
        "tle_line1": "1 29754U 99025AU  25346.29537243  .00003274  00000+0  15756-2 0  9998",
        "tle_line2": "2 29754  98.8838  89.0338 0035913 240.6266 187.0358 14.19148071973480"
      },
      "geometry": {
        "type": "Point",
        "coordinates": [
          82.57898838799518,
          41.1751285067743
        ]
      }
    },
    {
      "type": "Feature",
      "properties": {
        "norad_id": 29758,
        "name": "FENGYUN 1C DEB",
        "group": "fengyun-1c-debris",
        "lat": 74.67103394726735,
        "lon": 68.78854244980057,
        "alt_km": 758.250956761527,
        "timestamp": "2025-12-13T16:48:32.981405+00:00",
        "meta_object_name": "FENGYUN 1C DEB",
        "meta_object_id": "1999-025AY",
        "meta_epoch": "2025-12-12T19:31:20.686368",
        "meta_mean_motion": 14.40991183,
        "meta_eccentricity": 0.00211331,
        "meta_inclination": 98.8545,
        "meta_ra_of_asc_node": 102.529,
        "meta_arg_of_pericenter": 307.2317,
        "meta_mean_anomaly": 211.5509,
        "meta_ephemeris_type": 0,
        "meta_classification_type": "U",
        "meta_norad_cat_id": 29758,
        "meta_element_set_no": 999,
        "meta_rev_at_epoch": 97672,
        "meta_bstar": 0.0036713373,
        "meta_mean_motion_dot": 0.00011802,
        "meta_mean_motion_ddot": 0,
        "tle_line1": "1 29758U 99025AY  25346.81343387  .00011802  00000+0  36713-2 0  9996",
        "tle_line2": "2 29758  98.8545 102.5290 0021133 307.2317 211.5509 14.40991183976728"
      },
      "geometry": {
        "type": "Point",
        "coordinates": [
          68.78854244980057,
          74.67103394726735
        ]
      }
    }
  ]
}